IRIDIUM 166             
1 43570U 18061B   24279.12266667  .00000506  00000+0  17345-3 0  9998
2 43570  86.3954 315.8799 0002215  98.4845 261.6602 14.34219682324525
IRIDIUM 158             
1 43571U 18061C   24279.16072057  .00000585  00000+0  20180-3 0  9999
2 43571  86.3956 315.8737 0002303  96.6412 263.5046 14.34220278324502
IRIDIUM 165             
1 43572U 18061D   24279.18609241  .00000127  00000+0  38329-4 0  9990
2 43572  86.3955 315.8972 0002207  93.3327 266.8121 14.34217247324529
IRIDIUM 155             
1 43573U 18061E   24279.07826823  .00000019  00000+0 -38527-6 0  9999
2 43573  86.3952 315.8422 0002259  98.9335 261.2117 14.34217995324483
IRIDIUM 154             
1 43574U 18061F   24279.12900948  .00000023  00000+0  11589-5 0  9999
2 43574  86.3953 315.9239 0002013  90.4545 269.6882 14.34217559324533
IRIDIUM 163             
1 43575U 18061G   24278.55183297  .00000481  00000+0  16482-3 0  9999
2 43575  86.3956 316.1003 0001986  95.9095 264.2327 14.34217735324426
IRIDIUM 156             
1 43576U 18061H   24279.50322310  .00001329  00000+0  46745-3 0  9994
2 43576  86.3953 315.7089 0002401  99.9002 260.2464 14.34220526324541
IRIDIUM 164             
1 43577U 18061J   24278.64696970  .00001205  00000+0  42316-3 0  9998
2 43577  86.3956 316.0978 0002309  89.0211 271.1250 14.34220533324479
